[
    {
        "Altitude(m)": 554884.3892581571,
        "Argument of Periapsis(deg)": 0.006622991110713501,
        "Eccentricity": 0.0,
        "Inclination(deg)": 53.0,
        "Latitude(deg)": 28.940968365026322,
        "Longitude(deg)": 164.74521961128568,
        "Mean Anomaly(deg)": 142.81889286757752,
        "RAAN(deg)": 109.99014336852801,
        "Satellite Name": "Starlink Shell 1 492",
        "Satellite Number": 492,
        "Semi-Major Axis(m)": 6931778.249405717,
        "Time(s)": 190
    },
    {
        "Altitude(m)": 554814.4535752403,
        "Argument of Periapsis(deg)": 0.0069715695902247375,
        "Eccentricity": 0.0,
        "Inclination(deg)": 53.0,
        "Latitude(deg)": 28.482325446721884,
        "Longitude(deg)": 165.19296495188868,
        "Mean Anomaly(deg)": 143.44572407113432,
        "RAAN(deg)": 109.98962459845053,
        "Satellite Name": "Starlink Shell 1 492",
        "Satellite Number": 492,
        "Semi-Major Axis(m)": 6931778.249405717,
        "Time(s)": 200
    },
    {
        "Altitude(m)": 554745.7556379256,
        "Argument of Periapsis(deg)": 0.007320148069735974,
        "Eccentricity": 0.0,
        "Inclination(deg)": 53.0,
        "Latitude(deg)": 28.021908244885783,
        "Longitude(deg)": 165.6364983887221,
        "Mean Anomaly(deg)": 144.07255527469104,
        "RAAN(deg)": 109.98910582837308,
        "Satellite Name": "Starlink Shell 1 492",
        "Satellite Number": 492,
        "Semi-Major Axis(m)": 6931778.249405717,
        "Time(s)": 210
    },
    {
        "Altitude(m)": 554678.3476332689,
        "Argument of Periapsis(deg)": 0.007668726549247212,
        "Eccentricity": 0.0,
        "Inclination(deg)": 53.0,
        "Latitude(deg)": 27.559764664619795,
        "Longitude(deg)": 166.0759199713133,
        "Mean Anomaly(deg)": 144.6993864782477,
        "RAAN(deg)": 109.98858705829561,
        "Satellite Name": "Starlink Shell 1 492",
        "Satellite Number": 492,
        "Semi-Major Axis(m)": 6931778.249405717,
        "Time(s)": 220
    },
    {
        "Altitude(m)": 554612.2812869053,
        "Argument of Periapsis(deg)": 0.00801730502875845,
        "Eccentricity": 0.0,
        "Inclination(deg)": 53.0,
        "Latitude(deg)": 27.095941576490493,
        "Longitude(deg)": 166.5113284258838,
        "Mean Anomaly(deg)": 145.32621768180445,
        "RAAN(deg)": 109.98806828821813,
        "Satellite Name": "Starlink Shell 1 492",
        "Satellite Number": 492,
        "Semi-Major Axis(m)": 6931778.249405717,
        "Time(s)": 230
    },
    {
        "Altitude(m)": 554547.6078354719,
        "Argument of Periapsis(deg)": 0.008365883508269684,
        "Eccentricity": 0.0,
        "Inclination(deg)": 53.0,
        "Latitude(deg)": 26.63048484624835,
        "Longitude(deg)": 166.94282166129997,
        "Mean Anomaly(deg)": 145.95304888536114,
        "RAAN(deg)": 109.98754951814065,
        "Satellite Name": "Starlink Shell 1 492",
        "Satellite Number": 492,
        "Semi-Major Axis(m)": 6931778.249405717,
        "Time(s)": 240
    },
    {
        "Altitude(m)": 554484.3779992721,
        "Argument of Periapsis(deg)": 0.008714461987780921,
        "Eccentricity": 0.0,
        "Inclination(deg)": 53.0,
        "Latitude(deg)": 26.16343936406354,
        "Longitude(deg)": 167.37049576481337,
        "Mean Anomaly(deg)": 146.57988008891786,
        "RAAN(deg)": 109.98703074806318,
        "Satellite Name": "Starlink Shell 1 492",
        "Satellite Number": 492,
        "Semi-Major Axis(m)": 6931778.249405717,
        "Time(s)": 250
    },
    {
        "Altitude(m)": 554422.6419551567,
        "Argument of Periapsis(deg)": 0.009063040467292158,
        "Eccentricity": 0.0,
        "Inclination(deg)": 53.0,
        "Latitude(deg)": 25.694849073260624,
        "Longitude(deg)": 167.7944455131152,
        "Mean Anomaly(deg)": 147.2067112924746,
        "RAAN(deg)": 109.9865119779857,
        "Satellite Name": "Starlink Shell 1 492",
        "Satellite Number": 492,
        "Semi-Major Axis(m)": 6931778.249405717,
        "Time(s)": 260
    },
    {
        "Altitude(m)": 554362.4493095974,
        "Argument of Periapsis(deg)": 0.009411618946803396,
        "Eccentricity": 0.0,
        "Inclination(deg)": 53.0,
        "Latitude(deg)": 25.224756998542777,
        "Longitude(deg)": 168.2147648856239,
        "Mean Anomaly(deg)": 147.83354249603133,
        "RAAN(deg)": 109.98599320790825,
        "Satellite Name": "Starlink Shell 1 492",
        "Satellite Number": 492,
        "Semi-Major Axis(m)": 6931778.249405717,
        "Time(s)": 270
    },
    {
        "Altitude(m)": 554303.8490720382,
        "Argument of Periapsis(deg)": 0.009760197426314633,
        "Eccentricity": 0.0,
        "Inclination(deg)": 53.0,
        "Latitude(deg)": 24.75320527369957,
        "Longitude(deg)": 168.63154606693863,
        "Mean Anomaly(deg)": 148.46037369958805,
        "RAAN(deg)": 109.98547443783077,
        "Satellite Name": "Starlink Shell 1 492",
        "Satellite Number": 492,
        "Semi-Major Axis(m)": 6931778.249405717,
        "Time(s)": 280
    },
    {
        "Altitude(m)": 554246.8896284993,
        "Argument of Periapsis(deg)": 0.01010877590582587,
        "Eccentricity": 0.0,
        "Inclination(deg)": 53.0,
        "Latitude(deg)": 24.280235168786884,
        "Longitude(deg)": 169.04487996402472,
        "Mean Anomaly(deg)": 149.08720490314474,
        "RAAN(deg)": 109.98495566775328,
        "Satellite Name": "Starlink Shell 1 492",
        "Satellite Number": 492,
        "Semi-Major Axis(m)": 6931778.249405717,
        "Time(s)": 290
    },
    {
        "Altitude(m)": 554191.6187154312,
        "Argument of Periapsis(deg)": 0.010457354385337106,
        "Eccentricity": 0.0,
        "Inclination(deg)": 53.0,
        "Latitude(deg)": 23.8058871167775,
        "Longitude(deg)": 169.45485672508912,
        "Mean Anomaly(deg)": 149.71403610670146,
        "RAAN(deg)": 109.98443689767582,
        "Satellite Name": "Starlink Shell 1 492",
        "Satellite Number": 492,
        "Semi-Major Axis(m)": 6931778.249405717,
        "Time(s)": 300
    },
    {
        "Altitude(m)": 554138.0833938821,
        "Argument of Periapsis(deg)": 0.010805932864848343,
        "Eccentricity": 0.0,
        "Inclination(deg)": 53.0,
        "Latitude(deg)": 23.33020073968313,
        "Longitude(deg)": 169.86156474711464,
        "Mean Anomaly(deg)": 150.34086731025818,
        "RAAN(deg)": 109.98391812759834,
        "Satellite Name": "Starlink Shell 1 492",
        "Satellite Number": 492,
        "Semi-Major Axis(m)": 6931778.249405717,
        "Time(s)": 310
    },
    {
        "Altitude(m)": 554086.3300239436,
        "Argument of Periapsis(deg)": 0.01115451134435958,
        "Eccentricity": 0.0,
        "Inclination(deg)": 53.0,
        "Latitude(deg)": 22.85321487414242,
        "Longitude(deg)": 170.26509119765484,
        "Mean Anomaly(deg)": 150.9676985138148,
        "RAAN(deg)": 109.98339935752087,
        "Satellite Name": "Starlink Shell 1 492",
        "Satellite Number": 492,
        "Semi-Major Axis(m)": 6931778.249405717,
        "Time(s)": 320
    },
    {
        "Altitude(m)": 554036.4042395119,
        "Argument of Periapsis(deg)": 0.011503089823870818,
        "Eccentricity": 0.0,
        "Inclination(deg)": 53.0,
        "Latitude(deg)": 22.374967596478616,
        "Longitude(deg)": 170.6655225378805,
        "Mean Anomaly(deg)": 151.59452971737161,
        "RAAN(deg)": 109.98288058744339,
        "Satellite Name": "Starlink Shell 1 492",
        "Satellite Number": 492,
        "Semi-Major Axis(m)": 6931778.249405717,
        "Time(s)": 330
    },
    {
        "Altitude(m)": 553988.3509233927,
        "Argument of Periapsis(deg)": 0.011851668303382053,
        "Eccentricity": 0.0,
        "Inclination(deg)": 53.0,
        "Latitude(deg)": 21.8954962472329,
        "Longitude(deg)": 171.06294353387744,
        "Mean Anomaly(deg)": 152.22136092092828,
        "RAAN(deg)": 109.98236181736591,
        "Satellite Name": "Starlink Shell 1 492",
        "Satellite Number": 492,
        "Semi-Major Axis(m)": 6931778.249405717,
        "Time(s)": 340
    },
    {
        "Altitude(m)": 553942.2141827184,
        "Argument of Periapsis(deg)": 0.012200246782893292,
        "Eccentricity": 0.0,
        "Inclination(deg)": 53.0,
        "Latitude(deg)": 21.414837455171686,
        "Longitude(deg)": 171.4574377818285,
        "Mean Anomaly(deg)": 152.84819212448502,
        "RAAN(deg)": 109.98184304728845,
        "Satellite Name": "Starlink Shell 1 492",
        "Satellite Number": 492,
        "Semi-Major Axis(m)": 6931778.249405717,
        "Time(s)": 350
    },
    {
        "Altitude(m)": 553898.0373247336,
        "Argument of Periapsis(deg)": 0.012548825262404526,
        "Eccentricity": 0.0,
        "Inclination(deg)": 53.0,
        "Latitude(deg)": 20.933027160776838,
        "Longitude(deg)": 171.84908823409606,
        "Mean Anomaly(deg)": 153.4750233280418,
        "RAAN(deg)": 109.98132427721099,
        "Satellite Name": "Starlink Shell 1 492",
        "Satellite Number": 492,
        "Semi-Major Axis(m)": 6931778.249405717,
        "Time(s)": 360
    },
    {
        "Altitude(m)": 553855.8628329422,
        "Argument of Periapsis(deg)": 0.012897403741915765,
        "Eccentricity": 0.0,
        "Inclination(deg)": 53.0,
        "Latitude(deg)": 20.450100639226715,
        "Longitude(deg)": 172.23797621323408,
        "Mean Anomaly(deg)": 154.1018545315984,
        "RAAN(deg)": 109.98080550713351,
        "Satellite Name": "Starlink Shell 1 492",
        "Satellite Number": 492,
        "Semi-Major Axis(m)": 6931778.249405717,
        "Time(s)": 370
    }
]